{
  "norad_id": 61219,
  "name": "STARLINK-32248",
  "history": [
    {
      "epoch": "2026-03-28T16:24:03.778848",
      "apogee_km": 475.9223945611229,
      "perigee_km": 474.5462376008545,
      "latitude_deg": 19.725508942168528,
      "longitude_deg": 7.5041987197473645,
      "semi_major_axis_km": 6853.371316080988,
      "eccentricity": 0.0001004,
      "inclination_deg": 53.1572,
      "raan_deg": 234.4202,
      "arg_perigee_deg": 66.1894,
      "mean_anomaly_deg": 293.9212,
      "mean_motion_rev_day": 15.30193554
    }
  ]
}